{"type": "FeatureCollection", "features": [ {"type": "Feature", "properties": {"norad_id": 43058, "name": "GSAT0218 (GALILEO 22)", "group": "galileo", "lat": 43.90500655691676, "lon": -91.15058786866376, "alt_km": 23220.07459496557, "timestamp": "2025-12-09T04:51:47.756335+00:00", "meta": {"OBJECT_NAME": "GSAT0218 (GALILEO 22)", "OBJECT_ID": "2017-079D", "EPOCH": "2025-12-06T18:17:46.482720", "MEAN_MOTION": 1.70473862, "ECCENTRICITY": 0.00028449, "INCLINATION": 55.1307, "RA_OF_ASC_NODE": 226.7982, "ARG_OF_PERICENTER": 305.5375, "MEAN_ANOMALY": 54.5328, "EPHEMERIS_TYPE": 0, "CLASSIFICATION_TYPE": "U", "NORAD_CAT_ID": 43058, "ELEMENT_SET_NO": 999, "REV_AT_EPOCH": 4973, "BSTAR": 0, "MEAN_MOTION_DOT": 2.9e-07, "MEAN_MOTION_DDOT": 0}, "tle": {"line1": "1 43058U 17079D   25340.76234355  .00000029  00000+0  00000+0 0  9992", "line2": "2 43058  55.1307 226.7982 0002844 305.5375  54.5328  1.70473862 49733"}}, "geometry": {"type": "Point", "coordinates": [-91.15058786866376, 43.90500655691676]}}, {"type": "Feature", "properties": {"norad_id": 43564, "name": "GSAT0221 (GALILEO 25)", "group": "galileo", "lat": 48.27745571128641, "lon": 120.65038301855941, "alt_km": 23235.39071229807, "timestamp": "2025-12-09T04:51:47.756347+00:00", "meta": {"OBJECT_NAME": "GSAT0221 (GALILEO 25)", "OBJECT_ID": "2018-060A", "EPOCH": "2025-12-06T15:57:28.986048", "MEAN_MOTION": 1.70475679, "ECCENTRICITY": 0.00066883, "INCLINATION": 57.2291, "RA_OF_ASC_NODE": 346.9817, "ARG_OF_PERICENTER": 281.5609, "MEAN_ANOMALY": 78.3858, "EPHEMERIS_TYPE": 0, "CLASSIFICATION_TYPE": "U", "NORAD_CAT_ID": 43564, "ELEMENT_SET_NO": 999, "REV_AT_EPOCH": 4588, "BSTAR": 0, "MEAN_MOTION_DOT": -8.1e-07, "MEAN_MOTION_DDOT": 0}, "tle": {"line1": "1 43564U 18060A   25340.66491882 -.00000081  00000+0  00000+0 0  9993", "line2": "2 43564  57.2291 346.9817 0006688 281.5609  78.3858  1.70475679 45887"}}, "geometry": {"type": "Point", "coordinates": [120.65038301855941, 48.27745571128641]}}, {"type": "Feature", "properties": {"norad_id": 43565, "name": "GSAT0222 (GALILEO 26)", "group": "galileo", "lat": -14.354650027442288, "lon": -22.574064673630993, "alt_km": 23221.116265369983, "timestamp": "2025-12-09T04:51:47.756357+00:00", "meta": {"OBJECT_NAME": "GSAT0222 (GALILEO 26)", "OBJECT_ID": "2018-060B", "EPOCH": "2025-12-08T15:27:21.492000", "MEAN_MOTION": 1.70475431, "ECCENTRICITY": 0.0006174, "INCLINATION": 57.2322, "RA_OF_ASC_NODE": 346.9312, "ARG_OF_PERICENTER": 262.3002, "MEAN_ANOMALY": 97.6467, "EPHEMERIS_TYPE": 0, "CLASSIFICATION_TYPE": "U", "NORAD_CAT_ID": 43565, "ELEMENT_SET_NO": 999, "REV_AT_EPOCH": 4596, "BSTAR": 0, "MEAN_MOTION_DOT": -8.6e-07, "MEAN_MOTION_DDOT": 0}, "tle": {"line1": "1 43565U 18060B   25342.64399875 -.00000086  00000+0  00000+0 0  9998", "line2": "2 43565  57.2322 346.9312 0006174 262.3002  97.6467  1.70475431 45962"}}, "geometry": {"type": "Point", "coordinates": [-22.574064673630993, -14.354650027442288]}}, {"type": "Feature", "properties": {"norad_id": 43566, "name": "GSAT0219 (GALILEO 23)", "group": "galileo", "lat": -22.468937696104774, "lon": -177.63346318142075, "alt_km": 23221.73997542692, "timestamp": "2025-12-09T04:51:47.756369+00:00", "meta": {"OBJECT_NAME": "GSAT0219 (GALILEO 23)", "OBJECT_ID": "2018-060C", "EPOCH": "2025-12-07T16:36:27.181728", "MEAN_MOTION": 1.7047564, "ECCENTRICITY": 0.00057893, "INCLINATION": 57.2316, "RA_OF_ASC_NODE": 346.9585, "ARG_OF_PERICENTER": 285.9629, "MEAN_ANOMALY": 73.992, "EPHEMERIS_TYPE": 0, "CLASSIFICATION_TYPE": "U", "NORAD_CAT_ID": 43566, "ELEMENT_SET_NO": 999, "REV_AT_EPOCH": 4592, "BSTAR": 0, "MEAN_MOTION_DOT": -8.4e-07, "MEAN_MOTION_DDOT": 0}, "tle": {"line1": "1 43566U 18060C   25341.69198127 -.00000084  00000+0  00000+0 0  9998", "line2": "2 43566  57.2316 346.9585 0005789 285.9629  73.9920  1.70475640 45924"}}, "geometry": {"type": "Point", "coordinates": [-177.63346318142075, -22.468937696104774]}}, {"type": "Feature", "properties": {"norad_id": 43567, "name": "GSAT0220 (GALILEO 24)", "group": "galileo", "lat": 52.87502394907186, "lon": 45.23370060599531, "alt_km": 23231.526660135518, "timestamp": "2025-12-09T04:51:47.756379+00:00", "meta": {"OBJECT_NAME": "GSAT0220 (GALILEO 24)", "OBJECT_ID": "2018-060D", "EPOCH": "2025-12-07T07:49:54.342624", "MEAN_MOTION": 1.70475454, "ECCENTRICITY": 0.00061757, "INCLINATION": 57.2312, "RA_OF_ASC_NODE": 346.9681, "ARG_OF_PERICENTER": 282.9528, "MEAN_ANOMALY": 76.9979, "EPHEMERIS_TYPE": 0, "CLASSIFICATION_TYPE": "U", "NORAD_CAT_ID": 43567, "ELEMENT_SET_NO": 999, "REV_AT_EPOCH": 4590, "BSTAR": 0, "MEAN_MOTION_DOT": -8.3e-07, "MEAN_MOTION_DDOT": 0}, "tle": {"line1": "1 43567U 18060D   25341.32632341 -.00000083  00000+0  00000+0 0  9999", "line2": "2 43567  57.2312 346.9681 0006175 282.9528  76.9979  1.70475454 45901"}}, "geometry": {"type": "Point", "coordinates": [45.23370060599531, 52.87502394907186]}}, {"type": "Feature", "properties": {"norad_id": 49809, "name": "GSAT0223 (GALILEO 27)", "group": "galileo", "lat": 14.882803079852193, "lon": 156.94445941866326, "alt_km": 23220.074412789436, "timestamp": "2025-12-09T04:51:47.756390+00:00", "meta": {"OBJECT_NAME": "GSAT0223 (GALILEO 27)", "OBJECT_ID": "2021-116A", "EPOCH": "2025-12-08T12:32:15.823104", "MEAN_MOTION": 1.70475635, "ECCENTRICITY": 0.00046796, "INCLINATION": 57.2201, "RA_OF_ASC_NODE": 346.8263, "ARG_OF_PERICENTER": 251.0345, "MEAN_ANOMALY": 213.7248, "EPHEMERIS_TYPE": 0, "CLASSIFICATION_TYPE": "U", "NORAD_CAT_ID": 49809, "ELEMENT_SET_NO": 999, "REV_AT_EPOCH": 2493, "BSTAR": 0, "MEAN_MOTION_DOT": -8.6e-07, "MEAN_MOTION_DDOT": 0}, "tle": {"line1": "1 49809U 21116A   25342.52240536 -.00000086  00000+0  00000+0 0  9997", "line2": "2 49809  57.2201 346.8263 0004679 251.0345 213.7248  1.70475635 24930"}}, "geometry": {"type": "Point", "coordinates": [156.94445941866326, 14.882803079852193]}}, {"type": "Feature", "properties": {"norad_id": 49810, "name": "GSAT0224 (GALILEO 28)", "group": "galileo", "lat": -56.88534575560924, "lon": -94.30243096891613, "alt_km": 23216.870103984864, "timestamp": "2025-12-09T04:51:47.756401+00:00", "meta": {"OBJECT_NAME": "GSAT0224 (GALILEO 28)", "OBJECT_ID": "2021-116B", "EPOCH": "2025-12-07T13:56:35.698272", "MEAN_MOTION": 1.7047563, "ECCENTRICITY": 0.00040182, "INCLINATION": 57.2213, "RA_OF_ASC_NODE": 346.8506, "ARG_OF_PERICENTER": 254.5241, "MEAN_ANOMALY": 105.0474, "EPHEMERIS_TYPE": 0, "CLASSIFICATION_TYPE": "U", "NORAD_CAT_ID": 49810, "ELEMENT_SET_NO": 999, "REV_AT_EPOCH": 2493, "BSTAR": 0, "MEAN_MOTION_DOT": -8.4e-07, "MEAN_MOTION_DDOT": 0}, "tle": {"line1": "1 49810U 21116B   25341.58096873 -.00000084  00000+0  00000+0 0  9995", "line2": "2 49810  57.2213 346.8506 0004018 254.5241 105.0474  1.70475630 24934"}}, "geometry": {"type": "Point", "coordinates": [-94.30243096891613, -56.88534575560924]}}, {"type": "Feature", "properties": {"norad_id": 59598, "name": "GSAT0225 (GALILEO 29)", "group": "galileo", "lat": -54.92257639561519, "lon": 11.798329128490865, "alt_km": 23228.418083730343, "timestamp": "2025-12-09T04:51:47.756413+00:00", "meta": {"OBJECT_NAME": "GSAT0225 (GALILEO 29)", "OBJECT_ID": "2024-079A", "EPOCH": "2025-12-07T07:17:21.433056", "MEAN_MOTION": 1.70474562, "ECCENTRICITY": 0.00020328, "INCLINATION": 54.9984, "RA_OF_ASC_NODE": 106.4468, "ARG_OF_PERICENTER": 173.4457, "MEAN_ANOMALY": 8.4253, "EPHEMERIS_TYPE": 0, "CLASSIFICATION_TYPE": "U", "NORAD_CAT_ID": 59598, "ELEMENT_SET_NO": 999, "REV_AT_EPOCH": 1004, "BSTAR": 0, "MEAN_MOTION_DOT": 7e-08, "MEAN_MOTION_DDOT": 0}, "tle": {"line1": "1 59598U 24079A   25341.30372029  .00000007  00000+0  00000+0 0  9994", "line2": "2 59598  54.9984 106.4468 0002032 173.4457   8.4253  1.70474562 10047"}}, "geometry": {"type": "Point", "coordinates": [11.798329128490865, -54.92257639561519]}}, {"type": "Feature", "properties": {"norad_id": 59600, "name": "GSAT0227 (GALILEO 30)", "group": "galileo", "lat": 20.373231937692296, "lon": -88.68722399904382, "alt_km": 23212.281700618703, "timestamp": "2025-12-09T04:51:47.756424+00:00", "meta": {"OBJECT_NAME": "GSAT0227 (GALILEO 30)", "OBJECT_ID": "2024-079C", "EPOCH": "2025-12-08T08:44:01.424832", "MEAN_MOTION": 1.70474656, "ECCENTRICITY": 0.00032972, "INCLINATION": 54.9942, "RA_OF_ASC_NODE": 106.4167, "ARG_OF_PERICENTER": 114.0276, "MEAN_ANOMALY": 245.9681, "EPHEMERIS_TYPE": 0, "CLASSIFICATION_TYPE": "U", "NORAD_CAT_ID": 59600, "ELEMENT_SET_NO": 999, "REV_AT_EPOCH": 1011, "BSTAR": 0, "MEAN_MOTION_DOT": 8e-08, "MEAN_MOTION_DDOT": 0}, "tle": {"line1": "1 59600U 24079C   25342.36390538  .00000008  00000+0  00000+0 0  9991", "line2": "2 59600  54.9942 106.4167 0003297 114.0276 245.9681  1.70474656 10110"}}, "geometry": {"type": "Point", "coordinates": [-88.68722399904382, 20.373231937692296]}}, {"type": "Feature", "properties": {"norad_id": 61182, "name": "GSAT0232 (GALILEO 32)", "group": "galileo", "lat": -8.83305517842622, "lon": -139.65183963680988, "alt_km": 23228.086738077724, "timestamp": "2025-12-09T04:51:47.756435+00:00", "meta": {"OBJECT_NAME": "GSAT0232 (GALILEO 32)", "OBJECT_ID": "2024-167A", "EPOCH": "2025-12-08T07:56:10.650912", "MEAN_MOTION": 1.70473284, "ECCENTRICITY": 0.0002045, "INCLINATION": 55.2425, "RA_OF_ASC_NODE": 226.5518, "ARG_OF_PERICENTER": 212.3949, "MEAN_ANOMALY": 321.7655, "EPHEMERIS_TYPE": 0, "CLASSIFICATION_TYPE": "U", "NORAD_CAT_ID": 61182, "ELEMENT_SET_NO": 999, "REV_AT_EPOCH": 762, "BSTAR": 0, "MEAN_MOTION_DOT": 1.8e-07, "MEAN_MOTION_DDOT": 0}, "tle": {"line1": "1 61182U 24167A   25342.33067883  .00000018  00000+0  00000+0 0  9999", "line2": "2 61182  55.2425 226.5518 0002045 212.3949 321.7655  1.70473284  7623"}}, "geometry": {"type": "Point", "coordinates": [-139.65183963680988, -8.83305517842622]}}]}